[{"OBJECT_NAME":"JY1SAT (JO-97)","OBJECT_ID":"2018-099AX","EPOCH":"2026-03-09T16:28:19.890048","MEAN_MOTION":15.30302629,"ECCENTRICITY":0.00047232,"INCLINATION":97.4249,"RA_OF_ASC_NODE":131.3625,"ARG_OF_PERICENTER":256.6795,"MEAN_ANOMALY":103.3919,"EPHEMERIS_TYPE":0,"CLASSIFICATION_TYPE":"U","NORAD_CAT_ID":43803,"ELEMENT_SET_NO":999,"REV_AT_EPOCH":39839,"BSTAR":0.00060804308,"MEAN_MOTION_DOT":0.00017774,"MEAN_MOTION_DDOT":0},{"OBJECT_NAME":"STARLINK-32432","OBJECT_ID":"2024-175Q","EPOCH":"2026-03-09T15:04:14.896416","MEAN_MOTION":15.30202075,"ECCENTRICITY":9.72e-5,"INCLINATION":53.1597,"RA_OF_ASC_NODE":194.3614,"ARG_OF_PERICENTER":61.6966,"MEAN_ANOMALY":298.4133,"EPHEMERIS_TYPE":0,"CLASSIFICATION_TYPE":"U","NORAD_CAT_ID":61257,"ELEMENT_SET_NO":999,"REV_AT_EPOCH":8144,"BSTAR":-3.798e-5,"MEAN_MOTION_DOT":-1.484e-5,"MEAN_MOTION_DDOT":0}]
